KUIPER-00061            
1 64521U 25134X   25261.91668981 -.00479125  00000+0 -27989-1 0  9992
2 64521  51.8915 270.7970 0008074  60.0974 206.4860 15.13740305  5264
KUIPER-00062            
1 64522U 25134Y   25261.34755897  .00007636  00000+0  52020-3 0  9991
2 64522  51.8847 279.5044 0010826  71.9236 288.2917 15.07114900 14493
KUIPER-00063            
1 64523U 25134Z   25261.91668981  .00034873  00000+0  46168-2 0  9990
2 64523  51.9004 277.5316 0004174  33.0841 134.6968 14.79589302  5300
KUIPER-00064            
1 64524U 25134AA  25261.91668981  .00020992  00000+0  21303-2 0  9992
2 64524  51.8946 274.9279 0007913 138.5226 354.9125 14.90784266  5420
KUIPER-00065            
1 64525U 25134AB  25261.91668981  .00041588  00000+0  54664-2 0  9993
2 64525  51.8994 279.7729 0011684  76.1422 280.3031 14.79768537  5778
KUIPER-00066            
1 64526U 25134AC  25261.50446001  .00012944  00000+0  64036-3 0  9995
2 64526  51.8853 275.2979 0006087  58.4639 301.6934 15.18116672 14562
KUIPER-00069            
1 64816U 25151A   25261.86337769  .00046009  00000+0  12438-2 0  9992
2 64816  51.8809 335.8227 0008108  15.3890 344.7342 15.37238936 11108
KUIPER-00070            
1 64817U 25151B   25261.91668981 -.00050228  00000+0 -66068-2 0  9990
2 64817  51.8985 345.0597 0008951  54.7726 306.8071 14.79911929  4855
